[{"OBJECT_NAME":"STARLINK-36268","OBJECT_ID":"2025-304H","EPOCH":"2026-03-09T15:12:11.621376","MEAN_MOTION":14.98330189,"ECCENTRICITY":0.00032616,"INCLINATION":70.0018,"RA_OF_ASC_NODE":174.6997,"ARG_OF_PERICENTER":271.9396,"MEAN_ANOMALY":88.1389,"EPHEMERIS_TYPE":0,"CLASSIFICATION_TYPE":"U","NORAD_CAT_ID":67199,"ELEMENT_SET_NO":999,"REV_AT_EPOCH":1387,"BSTAR":0.00034070806,"MEAN_MOTION_DOT":3.975e-5,"MEAN_MOTION_DDOT":0},{"OBJECT_NAME":"FENGYUN 1C DEB","OBJECT_ID":"1999-025QY","EPOCH":"2026-03-09T17:49:58.428768","MEAN_MOTION":14.85185603,"ECCENTRICITY":0.01589258,"INCLINATION":99.2245,"RA_OF_ASC_NODE":8.2998,"ARG_OF_PERICENTER":58.4769,"MEAN_ANOMALY":303.1855,"EPHEMERIS_TYPE":0,"CLASSIFICATION_TYPE":"U","NORAD_CAT_ID":30095,"ELEMENT_SET_NO":999,"REV_AT_EPOCH":624,"BSTAR":0.002192592,"MEAN_MOTION_DOT":0.0002358,"MEAN_MOTION_DDOT":0}]
